0 SBS 3 R/B(PAM-D)
1 13658U 82110D   13282.48747141  .00001452  00000-0  13199-2 0  3594
2 13658 023.5229 060.8222 7132814 326.8048 011.2079 02.42859749188181
0 SBS 3 R/B(PAM-D)
1 13658U 82110D   13285.36379953  .00001250  00000-0  12808-2 0  3600
2 13658 023.5314 059.6466 7132730 328.8511 005.9692 02.42867326188255
0 SBS 3 R/B(PAM-D)
1 13658U 82110D   13286.60409282  .00001390  00000-0  15928-2 0  3619
2 13658 023.5339 059.1371 7132596 329.7360 010.3835 02.42870126188288
0 SBS 3 R/B(PAM-D)
1 13658U 82110D   13289.48887840  .00000898  00000-0  14489-2 0  3622
2 13658 023.5419 057.9571 7132378 331.7907 012.6605 02.42885828188356
0 SBS 3 R/B(PAM-D)
1 13658U 82110D   13292.36493759  .00001109  00000-0  15489-2 0  3633
2 13658 023.5503 056.7808 7132159 333.8387 007.4565 02.42894879188423
0 SBS 3 R/B(PAM-D)
1 13658U 82110D   13293.61275435  .00001370  00000-0  16700-2 0  3649
2 13658 023.5540 056.2703 7132071 334.7254 018.5713 02.42899532188451
0 SBS 3 R/B(PAM-D)
1 13658U 82110D   13294.42541284  .00001216  00000-0  14494-2 0  3655
2 13658 023.5568 055.9385 7132002 335.3029 009.1763 02.42904485188471
